OBJECT_NAME,OBJECT_ID,EPOCH,MEAN_MOTION,ECCENTRICITY,INCLINATION,RA_OF_ASC_NODE,ARG_OF_PERICENTER,MEAN_ANOMALY,EPHEMERIS_TYPE,CLASSIFICATION_TYPE,NORAD_CAT_ID,ELEMENT_SET_NO,REV_AT_EPOCH,BSTAR,MEAN_MOTION_DOT,MEAN_MOTION_DDOT
BEIDOU-2 IGSO-5 (C10),2011-073A,2026-06-24T15:46:07.226112,1.00272136,.01142233,47.6633,271.4526,222.0346,107.5350,0,U,37948,999,5320,0,-.196E-5,0
LUCH 5A (SDCM/PRN 140),2011-074B,2026-06-28T17:00:03.523104,1.00272638,.0002749,8.7820,73.6409,36.5129,228.5916,0,U,37951,999,5316,0,-.47E-6,0
BEIDOU-2 G5 (C05),2012-008A,2026-06-28T04:11:08.323296,1.00276327,.00085314,3.6011,69.6368,276.0054,52.1661,0,U,38091,999,5247,0,.64E-6,0
BEIDOU-2 M3 (C11),2012-018A,2026-06-28T11:09:19.303200,1.86229998,.00203223,55.7472,304.4944,273.2985,86.4646,0,U,38250,999,9615,0,-.88E-6,0
BEIDOU-2 M4 (C12),2012-018B,2026-06-27T20:38:38.167008,1.86229628,.00115226,55.6479,303.7280,274.3517,85.5111,0,U,38251,999,9614,0,-.92E-6,0
SES-5 (EGNOS/PRN 136),2012-036A,2026-06-28T14:11:41.235072,1.00273335,.00022753,0.0463,317.3630,142.1245,35.0952,0,U,38652,999,4457,0,.46E-6,0
BEIDOU-2 M6 (C14),2012-050B,2026-06-25T23:00:55.897920,1.86231117,.0013516,56.5518,62.6042,358.2268,1.8099,0,U,38775,999,9347,0,-.89E-6,0
GSAT-10 (GAGAN/PRN 128),2012-051B,2026-06-27T19:07:22.460736,1.00271898,.00081843,0.0578,257.9960,193.2541,194.5211,0,U,38779,999,5020,0,-.153E-5,0
GPS BIIF-3  (PRN 24),2012-053A,2026-06-28T06:49:52.738752,2.00567736,.01809462,53.5877,143.1448,65.9323,295.9085,0,U,38833,999,9966,0,.15E-6,0
GSAT0103 (GALILEO-FM3),2012-055A,2026-06-26T20:39:51.533568,1.70473558,.00046383,55.8122,101.2802,306.6783,53.2530,0,U,38857,999,8517,0,-.37E-6,0
BEIDOU-2 G6 (C02),2012-059A,2026-06-28T14:34:12.062784,1.00271134,.00096473,4.4501,73.4050,329.1200,176.7582,0,U,38953,999,5002,0,-.168E-5,0
LUCH 5B (SDCM/PRN 125),2012-061A,2026-06-28T10:40:12.554400,1.00272696,.00026301,10.5075,49.7707,135.8539,234.7179,0,U,38977,999,4972,0,-.134E-5,0
COSMOS 2485 (747),2013-019A,2026-06-27T05:36:33.082272,2.13103295,.00229095,65.4252,73.2671,232.8969,126.9354,0,U,39155,999,10249,0,-.52E-6,0
GPS BIIF-4  (PRN 27),2013-023A,2026-06-27T15:40:48.196704,2.00563560,.01414211,54.4958,268.5471,51.0520,310.2484,0,U,39166,999,9609,0,-.25E-6,0
IRNSS-1A,2013-034A,2026-06-27T18:31:01.056000,1.00278664,.00173842,35.7435,63.7190,184.1350,0.7758,0,U,39199,999,4747,0,.5E-6,0
GPS BIIF-5  (PRN 30),2014-008A,2026-06-28T03:41:15.445536,2.00560564,.00842134,53.6562,148.8725,231.4129,127.7974,0,U,39533,999,8990,0,.26E-6,0
ASTRA 5B (EGNOS/PRN 123),2014-011B,2026-06-28T14:16:55.732800,1.00273370,.00022025,0.0509,329.2427,113.8624,71.2917,0,U,39617,999,4478,0,.149E-5,0
COSMOS 2492 (754),2014-012A,2026-06-28T14:24:30.100032,2.13103394,.00102677,65.2906,313.5472,322.2306,37.6876,0,U,39620,999,9548,0,-.74E-6,0
IRNSS-1B,2014-017A,2026-06-27T18:29:58.956000,1.00270216,.00224041,28.9051,240.2208,189.0275,179.2252,0,U,39635,999,4490,0,.148E-5,0
LUCH 5V (SDCM/PRN 141),2014-023A,2026-06-28T14:37:19.263936,1.00271460,.00025565,5.1608,69.6343,51.5675,109.5898,0,U,39727,999,4447,0,-.262E-5,0
GPS BIIF-6  (PRN 06),2014-026A,2026-06-27T22:20:14.665056,2.00560372,.00381126,56.4927,331.0994,326.3037,33.4454,0,U,39741,999,8875,0,-.1E-5,0
COSMOS 2500 (755),2014-032A,2026-06-27T08:41:34.003968,2.13106005,.00077512,65.2259,313.3360,186.3038,173.6757,0,U,40001,999,9367,0,-.81E-6,0
GPS BIIF-7  (PRN 09),2014-045A,2026-06-26T00:40:32.827008,2.00559107,.0033686,55.3587,88.1127,118.2750,242.0678,0,U,40105,999,8625,0,-.68E-6,0
GSAT0201 (GALILEO 5),2014-050A,2026-06-26T00:58:35.923584,1.85520188,.1675889,48.8656,273.0732,179.7342,180.4221,0,U,40128,999,7848,0,-.7E-6,0
GSAT0202 (GALILEO 6),2014-050B,2026-06-28T10:51:05.410944,1.85520734,.16774002,48.8797,272.0598,180.5593,179.2896,0,U,40129,999,8069,0,-.43E-6,0
IRNSS-1C,2014-061A,2026-06-27T19:06:04.205664,1.00275061,.00221191,6.5438,88.7299,4.8698,191.7311,0,U,40269,999,4279,0,-.156E-5,0
GPS BIIF-8  (PRN 03),2014-068A,2026-06-27T21:23:54.391200,2.00577023,.00672701,56.9949,30.5424,71.0132,289.7753,0,U,40294,999,8542,0,-.74E-6,0
COSMOS 2501 (702K),2014-075A,2026-06-28T02:14:52.596384,2.13101409,.00226466,63.6168,189.9945,212.6319,147.2733,0,U,40315,999,9008,0,.93E-6,0
GPS BIIF-9  (PRN 26),2015-013A,2026-06-28T12:43:45.333984,2.00550799,.01098251,53.1672,203.7083,40.2188,320.6559,0,U,40534,999,8205,0,.79E-6,0
GSAT0203 (GALILEO 7),2015-017A,2026-06-28T08:35:20.684256,1.70476391,.00021619,56.7824,341.2913,267.9865,91.9808,0,U,40544,999,6939,0,-.92E-6,0
GSAT0204 (GALILEO 8),2015-017B,2026-06-28T00:39:02.769696,1.70475922,.00022247,56.7895,341.3189,238.6181,121.3527,0,U,40545,999,3243,0,-.93E-6,0
