BEIDOU-2 IGSO-5         
1 37948U 11073A   26175.65702808 -.00000196  00000+0  00000+0 0  9995
2 37948  47.6633 271.4526 0114223 222.0346 107.5350  1.00272136 53204
LUCH-5A                 
1 37951U 11074B   26179.70837411 -.00000047  00000+0  00000+0 0  9994
2 37951   8.7820  73.6409 0002749  36.5129 228.5916  1.00272638 53166
BEIDOU-2 G5             
1 38091U 12008A   26179.17440189  .00000064  00000+0  00000+0 0  9999
2 38091   3.6011  69.6368 0008531 276.0054  52.1661  1.00276327 52470
BEIDOU-2 M3             
1 38250U 12018A   26179.46480675 -.00000088  00000+0  00000+0 0  9990
2 38250  55.7472 304.4944 0020322 273.2985  86.4646  1.86229998 96152
BEIDOU-2 M4             
1 38251U 12018B   26178.86016397 -.00000092  00000+0  00000+0 0  9995
2 38251  55.6479 303.7280 0011522 274.3517  85.5111  1.86229628 96145
SES-5                   
1 38652U 12036A   26179.59144948  .00000046  00000+0  00000+0 0  9993
2 38652   0.0463 317.3630 0002275 142.1245  35.0952  1.00273335 44575
BEIDOU-2 M6             
1 38775U 12050B   26176.95898030 -.00000089  00000+0  00000+0 0  9998
2 38775  56.5518  62.6042 0013516 358.2268   1.8099  1.86231117 93472
GSAT-10                 
1 38779U 12051B   26178.79678774 -.00000153  00000+0  00000+0 0  9990
2 38779   0.0578 257.9960 0008184 193.2541 194.5211  1.00271898 50206
NAVSTAR 67 (USA 239)    
1 38833U 12053A   26179.28463818  .00000015  00000+0  00000+0 0  9995
2 38833  53.5877 143.1448 0180946  65.9323 295.9085  2.00567736 99667
GSAT0103 (GALILEO-FM3)  
1 38857U 12055A   26177.86101312 -.00000037  00000+0  00000+0 0  9998
2 38857  55.8122 101.2802 0004638 306.6783  53.2530  1.70473558 85173
BEIDOU-2 G6             
1 38953U 12059A   26179.60708406 -.00000168  00000+0  00000+0 0  9995
2 38953   4.4501  73.4050 0009647 329.1200 176.7582  1.00271134 50028
LUCH-5B                 
1 38977U 12061A   26179.44458975 -.00000134  00000+0  00000+0 0  9992
2 38977  10.5075  49.7707 0002630 135.8539 234.7179  1.00272696 49721
COSMOS 2485 [GLONASS-M] 
1 39155U 13019A   26178.23371623 -.00000052  00000+0  00000+0 0  9994
2 39155  65.4252  73.2671 0022909 232.8969 126.9354  2.13103295102498
NAVSTAR 68 (USA 242)    
1 39166U 13023A   26178.65333561 -.00000025  00000+0  00000+0 0  9996
2 39166  54.4958 268.5471 0141421  51.0520 310.2484  2.00563560 96094
IRNSS-1A                
1 39199U 13034A   26178.77154000  .00000050  00000+0  00000+0 0  9993
2 39199  35.7435  63.7190 0017384 184.1350   0.7758  1.00278664 47474
NAVSTAR 69 (USA 248)    
1 39533U 14008A   26179.15365099  .00000026  00000+0  00000+0 0  9995
2 39533  53.6562 148.8725 0084213 231.4129 127.7974  2.00560564 89908
ASTRA 5B                
1 39617U 14011B   26179.59508950  .00000149  00000+0  00000+0 0  9991
2 39617   0.0509 329.2427 0002202 113.8624  71.2917  1.00273370 44785
COSMOS 2492 [GLONASS-M] 
1 39620U 14012A   26179.60034838 -.00000074  00000+0  00000+0 0  9995
2 39620  65.2906 313.5472 0010267 322.2306  37.6876  2.13103394 95488
IRNSS-1B                
1 39635U 14017A   26178.77082125  .00000148  00000+0  00000+0 0  9996
2 39635  28.9051 240.2208 0022404 189.0275 179.2252  1.00270216 44909
LUCH-5V                 
1 39727U 14023A   26179.60925074 -.00000262  00000+0  00000+0 0  9995
2 39727   5.1608  69.6343 0002556  51.5675 109.5898  1.00271460 44478
NAVSTAR 70 (USA 251)    
1 39741U 14026A   26178.93072529 -.00000100  00000+0  00000+0 0  9998
2 39741  56.4927 331.0994 0038112 326.3037  33.4454  2.00560372 88753
COSMOS 2500 [GLONASS-M] 
1 40001U 14032A   26178.36219912 -.00000081  00000+0  00000+0 0  9990
2 40001  65.2259 313.3360 0007751 186.3038 173.6757  2.13106005 93673
NAVSTAR 71 (USA 256)    
1 40105U 14045A   26177.02815772 -.00000068  00000+0  00000+0 0  9992
2 40105  55.3587  88.1127 0033686 118.2750 242.0678  2.00559107 86251
GSAT0201 (GALILEO 5)    
1 40128U 14050A   26177.04069356 -.00000070  00000+0  00000+0 0  9997
2 40128  48.8656 273.0732 1675889 179.7342 180.4221  1.85520188 78488
GSAT0202 (GALILEO 6)    
1 40129U 14050B   26179.45214596 -.00000043  00000+0  00000+0 0  9993
2 40129  48.8797 272.0598 1677400 180.5593 179.2896  1.85520734 80690
IRNSS-1C                
1 40269U 14061A   26178.79588201 -.00000156  00000+0  00000+0 0  9998
2 40269   6.5438  88.7299 0022119   4.8698 191.7311  1.00275061 42799
NAVSTAR 72 (USA 258)    
1 40294U 14068A   26178.89160175 -.00000074  00000+0  00000+0 0  9999
2 40294  56.9949  30.5424 0067270  71.0132 289.7753  2.00577023 85423
COSMOS 2501 [GLONASS-K] 
1 40315U 14075A   26179.09366431  .00000093  00000+0  00000+0 0  9997
2 40315  63.6168 189.9945 0022646 212.6319 147.2733  2.13101409 90089
NAVSTAR 73 (USA 260)    
1 40534U 15013A   26179.53038581  .00000079  00000+0  00000+0 0  9998
2 40534  53.1672 203.7083 0109825  40.2188 320.6559  2.00550799 82055
GSAT0203 (GALILEO 7)    
1 40544U 15017A   26179.35787829 -.00000092  00000+0  00000+0 0  9995
2 40544  56.7824 341.2913 0002161 267.9865  91.9808  1.70476391 69397
GSAT0204 (GALILEO 8)    
1 40545U 15017B   26179.02711539 -.00000093  00000+0  00000+0 0  9996
2 40545  56.7895 341.3189 0002224 238.6181 121.3527  1.70475922 32438
